{
  "type": "FeatureCollection",
  "features": [
    {
      "type": "Feature",
      "properties": {
        "norad_id": 44334,
        "name": "EUTELSAT 7C",
        "group": "eutelsat",
        "lat": -0.02175738724726522,
        "lon": 167.46005648477458,
        "alt_km": 35784.07372520752,
        "timestamp": "2025-12-17T04:57:44.071183+00:00",
        "meta_object_name": "EUTELSAT 7C",
        "meta_object_id": "2019-034B",
        "meta_epoch": "2025-12-16T15:06:04.817088",
        "meta_mean_motion": 1.00271584,
        "meta_eccentricity": 0.00030764,
        "meta_inclination": 0.0725,
        "meta_ra_of_asc_node": 176.9051,
        "meta_arg_of_pericenter": 71.4959,
        "meta_mean_anomaly": 70.6234,
        "meta_ephemeris_type": 0,
        "meta_classification_type": "U",
        "meta_norad_cat_id": 44334,
        "meta_element_set_no": 999,
        "meta_rev_at_epoch": 500,
        "meta_bstar": 0,
        "meta_mean_motion_dot": 7.2e-07,
        "meta_mean_motion_ddot": 0,
        "tle_line1": "1 44334U 19034B   25350.62922242  .00000072  00000+0  00000+0 0  9996",
        "tle_line2": "2 44334   0.0725 176.9051 0003076  71.4959  70.6234  1.00271584  5009"
      },
      "geometry": {
        "type": "Point",
        "coordinates": [
          167.46005648477458,
          -0.02175738724726522
        ]
      }
    },
    {
      "type": "Feature",
      "properties": {
        "norad_id": 44624,
        "name": "EUTELSAT 5 WEST B",
        "group": "eutelsat",
        "lat": -0.00812297529022251,
        "lon": 155.48717459263796,
        "alt_km": 35790.38427763695,
        "timestamp": "2025-12-17T04:57:44.071193+00:00",
        "meta_object_name": "EUTELSAT 5 WEST B",
        "meta_object_id": "2019-067A",
        "meta_epoch": "2025-12-16T16:45:26.529408",
        "meta_mean_motion": 1.00273404,
        "meta_eccentricity": 0.00032128,
        "meta_inclination": 0.0718,
        "meta_ra_of_asc_node": 328.0837,
        "meta_arg_of_pericenter": 297.9628,
        "meta_mean_anomaly": 65.9102,
        "meta_ephemeris_type": 0,
        "meta_classification_type": "U",
        "meta_norad_cat_id": 44624,
        "meta_element_set_no": 999,
        "meta_rev_at_epoch": 2260,
        "meta_bstar": 0,
        "meta_mean_motion_dot": -1.8e-07,
        "meta_mean_motion_ddot": 0,
        "tle_line1": "1 44624U 19067A   25350.69822372 -.00000018  00000+0  00000+0 0  9995",
        "tle_line2": "2 44624   0.0718 328.0837 0003212 297.9628  65.9102  1.00273404 22604"
      },
      "geometry": {
        "type": "Point",
        "coordinates": [
          155.48717459263796,
          -0.00812297529022251
        ]
      }
    },
    {
      "type": "Feature",
      "properties": {
        "norad_id": 45027,
        "name": "EUTELSAT KONNECT",
        "group": "eutelsat",
        "lat": 0.06330693784706941,
        "lon": 167.688581696627,
        "alt_km": 35789.11676710343,
        "timestamp": "2025-12-17T04:57:44.071204+00:00",
        "meta_object_name": "EUTELSAT KONNECT",
        "meta_object_id": "2020-005B",
        "meta_epoch": "2025-12-16T16:48:56.195424",
        "meta_mean_motion": 1.00270775,
        "meta_eccentricity": 0.000134,
        "meta_inclination": 0.0734,
        "meta_ra_of_asc_node": 96,
        "meta_arg_of_pericenter": 191.486,
        "meta_mean_anomaly": 57.5312,
        "meta_ephemeris_type": 0,
        "meta_classification_type": "U",
        "meta_norad_cat_id": 45027,
        "meta_element_set_no": 999,
        "meta_rev_at_epoch": 2250,
        "meta_bstar": 0,
        "meta_mean_motion_dot": 7.3e-07,
        "meta_mean_motion_ddot": 0,
        "tle_line1": "1 45027U 20005B   25350.70065041  .00000073  00000+0  00000+0 0  9991",
        "tle_line2": "2 45027   0.0734  96.0000 0001340 191.4860  57.5312  1.00270775 22507"
      },
      "geometry": {
        "type": "Point",
        "coordinates": [
          167.688581696627,
          0.06330693784706941
        ]
      }
    },
    {
      "type": "Feature",
      "properties": {
        "norad_id": 49056,
        "name": "EUTELSAT QUANTUM",
        "group": "eutelsat",
        "lat": -0.019503824138022822,
        "lon": -151.80718629477644,
        "alt_km": 35780.2233463532,
        "timestamp": "2025-12-17T04:57:44.071215+00:00",
        "meta_object_name": "EUTELSAT QUANTUM",
        "meta_object_id": "2021-069B",
        "meta_epoch": "2025-12-16T10:09:25.725024",
        "meta_mean_motion": 1.00273452,
        "meta_eccentricity": 0.00035682,
        "meta_inclination": 0.0118,
        "meta_ra_of_asc_node": 5.206,
        "meta_arg_of_pericenter": 272.6079,
        "meta_mean_anomaly": 7.5753,
        "meta_ephemeris_type": 0,
        "meta_classification_type": "U",
        "meta_norad_cat_id": 49056,
        "meta_element_set_no": 999,
        "meta_rev_at_epoch": 1609,
        "meta_bstar": 0,
        "meta_mean_motion_dot": 1.49e-06,
        "meta_mean_motion_ddot": 0,
        "tle_line1": "1 49056U 21069B   25350.42321441  .00000149  00000+0  00000+0 0  9990",
        "tle_line2": "2 49056   0.0118   5.2060 0003568 272.6079   7.5753  1.00273452 16091"
      },
      "geometry": {
        "type": "Point",
        "coordinates": [
          -151.80718629477644,
          -0.019503824138022822
        ]
      }
    },
    {
      "type": "Feature",
      "properties": {
        "norad_id": 53765,
        "name": "EUTELSAT KONNECT VHTS",
        "group": "eutelsat",
        "lat": 0.05276257186446161,
        "lon": 163.21477885707202,
        "alt_km": 35784.72610274982,
        "timestamp": "2025-12-17T04:57:44.071225+00:00",
        "meta_object_name": "EUTELSAT KONNECT VHTS",
        "meta_object_id": "2022-110A",
        "meta_epoch": "2025-12-16T18:30:23.980032",
        "meta_mean_motion": 1.00270348,
        "meta_eccentricity": 0.00023107,
        "meta_inclination": 0.0649,
        "meta_ra_of_asc_node": 101.3721,
        "meta_arg_of_pericenter": 141.4952,
        "meta_mean_anomaly": 123.1246,
        "meta_ephemeris_type": 0,
        "meta_classification_type": "U",
        "meta_norad_cat_id": 53765,
        "meta_element_set_no": 999,
        "meta_rev_at_epoch": 499,
        "meta_bstar": 0,
        "meta_mean_motion_dot": 4.1e-07,
        "meta_mean_motion_ddot": 0,
        "tle_line1": "1 53765U 22110A   25350.77111088  .00000041  00000+0  00000+0 0  9993",
        "tle_line2": "2 53765   0.0649 101.3721 0002310 141.4952 123.1246  1.00270348  4990"
      },
      "geometry": {
        "type": "Point",
        "coordinates": [
          163.21477885707202,
          0.05276257186446161
        ]
      }
    },
    {
      "type": "Feature",
      "properties": {
        "norad_id": 54048,
        "name": "EUTELSAT HOTBIRD 13F",
        "group": "eutelsat",
        "lat": -0.044843890760934396,
        "lon": 173.5059152385687,
        "alt_km": 35795.687962451586,
        "timestamp": "2025-12-17T04:57:44.071236+00:00",
        "meta_object_name": "EUTELSAT HOTBIRD 13F",
        "meta_object_id": "2022-134A",
        "meta_epoch": "2025-12-14T22:02:26.653056",
        "meta_mean_motion": 1.0027139,
        "meta_eccentricity": 0.00023413,
        "meta_inclination": 0.0492,
        "meta_ra_of_asc_node": 293.4772,
        "meta_arg_of_pericenter": 68.5165,
        "meta_mean_anomaly": 65.4415,
        "meta_ephemeris_type": 0,
        "meta_classification_type": "U",
        "meta_norad_cat_id": 54048,
        "meta_element_set_no": 999,
        "meta_rev_at_epoch": 1152,
        "meta_bstar": 0,
        "meta_mean_motion_dot": 1.07e-06,
        "meta_mean_motion_ddot": 0,
        "tle_line1": "1 54048U 22134A   25348.91836404  .00000107  00000+0  00000+0 0  9996",
        "tle_line2": "2 54048   0.0492 293.4772 0002341  68.5165  65.4415  1.00271390 11520"
      },
      "geometry": {
        "type": "Point",
        "coordinates": [
          173.5059152385687,
          -0.044843890760934396
        ]
      }
    },
    {
      "type": "Feature",
      "properties": {
        "norad_id": 54225,
        "name": "EUTELSAT HOTBIRD 13G",
        "group": "eutelsat",
        "lat": -0.04369414686158882,
        "lon": 173.49972089520526,
        "alt_km": 35778.236334551126,
        "timestamp": "2025-12-17T04:57:44.071246+00:00",
        "meta_object_name": "EUTELSAT HOTBIRD 13G",
        "meta_object_id": "2022-146A",
        "meta_epoch": "2025-12-16T18:33:16.204608",
        "meta_mean_motion": 1.00271926,
        "meta_eccentricity": 0.00018537,
        "meta_inclination": 0.0513,
        "meta_ra_of_asc_node": 235.9027,
        "meta_arg_of_pericenter": 298.6351,
        "meta_mean_anomaly": 202.4305,
        "meta_ephemeris_type": 0,
        "meta_classification_type": "U",
        "meta_norad_cat_id": 54225,
        "meta_element_set_no": 999,
        "meta_rev_at_epoch": 563,
        "meta_bstar": 0,
        "meta_mean_motion_dot": 1.11e-06,
        "meta_mean_motion_ddot": 0,
        "tle_line1": "1 54225U 22146A   25350.77310422  .00000111  00000+0  00000+0 0  9995",
        "tle_line2": "2 54225   0.0513 235.9027 0001853 298.6351 202.4305  1.00271926  5636"
      },
      "geometry": {
        "type": "Point",
        "coordinates": [
          173.49972089520526,
          -0.04369414686158882
        ]
      }
    }
  ]
}